SENTINEL-6              
1 46984U 20086A   23184.45145343 -.00000025  00000+0  15709-3 0  9996
2 46984  66.0391 217.6748 0008099 269.3245  90.6842 12.80930078122169
